GHGSAT-C1               
1 46278U 20061G   26204.81206946  .00043127  00000+0  30341-3 0  9996
2 46278  97.2087 291.2088 0001671 167.8403 192.2902 15.74020577329238
GHGSAT-C2               
1 47509U 21006DA  26204.51913502  .00006166  00000+0  16606-3 0  9994
2 47509  97.2131 251.1659 0006196  52.9137 307.2674 15.38182293305434
GHGSAT-C3               
1 52737U 22057F   26204.88535025  .00007016  00000+0  21066-3 0  9991
2 52737  97.6637 351.9375 0005546   6.3051 353.8260 15.34761798231163
GHGSAT-C5               
1 52744U 22057N   26204.85962632  .00007165  00000+0  21522-3 0  9996
2 52744  97.6723 353.5268 0006251   2.8986 357.2292 15.34737720231169
GHGSAT-C4               
1 52746U 22057Q   26204.84095044  .00007046  00000+0  21165-3 0  9992
2 52746  97.6564 350.6855 0005377 347.9564  12.1549 15.34747968231164
GHGSAT-C8               
1 56186U 23054J   26204.81209874  .00017549  00000+0  27297-3 0  9998
2 56186  97.2944 114.6805 0001635 316.8851  43.2274 15.53981262184125
GHGSAT-C6               
1 56204U 23054AC  26204.84285522  .00018203  00000+0  28328-3 0  9990
2 56204  97.3008 115.4220 0003263 251.5685 108.5214 15.53956008184148
GHGSAT-C7               
1 56209U 23054AH  26204.86003699  .00012824  00000+0  22558-3 0  9992
2 56209  97.2958 113.7074 0004876 259.5445 100.5257 15.50595272184077
GHGSAT-C12              
1 64529U 25135B   26204.77525352  .00003069  00000+0  14364-3 0  9990
2 64529  97.4771 319.2684 0006065  58.4532 301.7295 15.20486104 60385
GHGSAT-C13              
1 64548U 25135W   26204.75752348  .00005451  00000+0  24557-3 0  9998
2 64548  97.4800 319.8821 0001465  61.2887 298.8496 15.21472579 60417
