{"fetched_at":"2026-07-24T07:06:29.006Z","source":"https://celestrak.org/NORAD/elements/gp.php?NAME=GHGSAT&FORMAT=JSON","constellation":"ghgsat","records":[{"OBJECT_NAME":"GHGSAT-C1","OBJECT_ID":"2020-061G","EPOCH":"2026-07-23T19:29:22.801344","CLASSIFICATION_TYPE":"U","MEAN_MOTION":15.74020577,"ECCENTRICITY":0.0001671,"INCLINATION":97.2087,"RA_OF_ASC_NODE":291.2088,"ARG_OF_PERICENTER":167.8403,"MEAN_ANOMALY":192.2902,"EPHEMERIS_TYPE":0,"NORAD_CAT_ID":46278,"ELEMENT_SET_NO":999,"REV_AT_EPOCH":32923,"BSTAR":0.00030341,"MEAN_MOTION_DOT":0.00043127,"MEAN_MOTION_DDOT":0},{"OBJECT_NAME":"GHGSAT-C2","OBJECT_ID":"2021-006DA","EPOCH":"2026-07-23T12:27:33.265728","CLASSIFICATION_TYPE":"U","MEAN_MOTION":15.38182293,"ECCENTRICITY":0.0006196,"INCLINATION":97.2131,"RA_OF_ASC_NODE":251.1659,"ARG_OF_PERICENTER":52.9137,"MEAN_ANOMALY":307.2674,"EPHEMERIS_TYPE":0,"NORAD_CAT_ID":47509,"ELEMENT_SET_NO":999,"REV_AT_EPOCH":30543,"BSTAR":0.00016606,"MEAN_MOTION_DOT":0.00006166,"MEAN_MOTION_DDOT":0},{"OBJECT_NAME":"GHGSAT-C3","OBJECT_ID":"2022-057F","EPOCH":"2026-07-23T21:14:54.261600","CLASSIFICATION_TYPE":"U","MEAN_MOTION":15.34761798,"ECCENTRICITY":0.0005546,"INCLINATION":97.6637,"RA_OF_ASC_NODE":351.9375,"ARG_OF_PERICENTER":6.3051,"MEAN_ANOMALY":353.826,"EPHEMERIS_TYPE":0,"NORAD_CAT_ID":52737,"ELEMENT_SET_NO":999,"REV_AT_EPOCH":23116,"BSTAR":0.00021066,"MEAN_MOTION_DOT":0.00007016,"MEAN_MOTION_DDOT":0},{"OBJECT_NAME":"GHGSAT-C5","OBJECT_ID":"2022-057N","EPOCH":"2026-07-23T20:37:51.714048","CLASSIFICATION_TYPE":"U","MEAN_MOTION":15.3473772,"ECCENTRICITY":0.0006251,"INCLINATION":97.6723,"RA_OF_ASC_NODE":353.5268,"ARG_OF_PERICENTER":2.8986,"MEAN_ANOMALY":357.2292,"EPHEMERIS_TYPE":0,"NORAD_CAT_ID":52744,"ELEMENT_SET_NO":999,"REV_AT_EPOCH":23116,"BSTAR":0.00021522,"MEAN_MOTION_DOT":0.00007165,"MEAN_MOTION_DDOT":0},{"OBJECT_NAME":"GHGSAT-C4","OBJECT_ID":"2022-057Q","EPOCH":"2026-07-23T20:10:58.118016","CLASSIFICATION_TYPE":"U","MEAN_MOTION":15.34747968,"ECCENTRICITY":0.0005377,"INCLINATION":97.6564,"RA_OF_ASC_NODE":350.6855,"ARG_OF_PERICENTER":347.9564,"MEAN_ANOMALY":12.1549,"EPHEMERIS_TYPE":0,"NORAD_CAT_ID":52746,"ELEMENT_SET_NO":999,"REV_AT_EPOCH":23116,"BSTAR":0.00021165,"MEAN_MOTION_DOT":0.00007046,"MEAN_MOTION_DDOT":0},{"OBJECT_NAME":"GHGSAT-C8","OBJECT_ID":"2023-054J","EPOCH":"2026-07-23T19:29:25.331136","CLASSIFICATION_TYPE":"U","MEAN_MOTION":15.53981262,"ECCENTRICITY":0.0001635,"INCLINATION":97.2944,"RA_OF_ASC_NODE":114.6805,"ARG_OF_PERICENTER":316.8851,"MEAN_ANOMALY":43.2274,"EPHEMERIS_TYPE":0,"NORAD_CAT_ID":56186,"ELEMENT_SET_NO":999,"REV_AT_EPOCH":18412,"BSTAR":0.00027297,"MEAN_MOTION_DOT":0.00017549,"MEAN_MOTION_DDOT":0},{"OBJECT_NAME":"GHGSAT-C6","OBJECT_ID":"2023-054AC","EPOCH":"2026-07-23T20:13:42.691008","CLASSIFICATION_TYPE":"U","MEAN_MOTION":15.53956008,"ECCENTRICITY":0.0003263,"INCLINATION":97.3008,"RA_OF_ASC_NODE":115.422,"ARG_OF_PERICENTER":251.5685,"MEAN_ANOMALY":108.5214,"EPHEMERIS_TYPE":0,"NORAD_CAT_ID":56204,"ELEMENT_SET_NO":999,"REV_AT_EPOCH":18414,"BSTAR":0.00028328,"MEAN_MOTION_DOT":0.00018203,"MEAN_MOTION_DDOT":0},{"OBJECT_NAME":"GHGSAT-C7","OBJECT_ID":"2023-054AH","EPOCH":"2026-07-23T20:38:27.195936","CLASSIFICATION_TYPE":"U","MEAN_MOTION":15.50595272,"ECCENTRICITY":0.0004876,"INCLINATION":97.2958,"RA_OF_ASC_NODE":113.7074,"ARG_OF_PERICENTER":259.5445,"MEAN_ANOMALY":100.5257,"EPHEMERIS_TYPE":0,"NORAD_CAT_ID":56209,"ELEMENT_SET_NO":999,"REV_AT_EPOCH":18407,"BSTAR":0.00022558,"MEAN_MOTION_DOT":0.00012824,"MEAN_MOTION_DDOT":0},{"OBJECT_NAME":"GHGSAT-C12","OBJECT_ID":"2025-135B","EPOCH":"2026-07-23T18:36:21.904128","CLASSIFICATION_TYPE":"U","MEAN_MOTION":15.20486104,"ECCENTRICITY":0.0006065,"INCLINATION":97.4771,"RA_OF_ASC_NODE":319.2684,"ARG_OF_PERICENTER":58.4532,"MEAN_ANOMALY":301.7295,"EPHEMERIS_TYPE":0,"NORAD_CAT_ID":64529,"ELEMENT_SET_NO":999,"REV_AT_EPOCH":6038,"BSTAR":0.00014364,"MEAN_MOTION_DOT":0.00003069,"MEAN_MOTION_DDOT":0},{"OBJECT_NAME":"GHGSAT-C13","OBJECT_ID":"2025-135W","EPOCH":"2026-07-23T18:10:50.028672","CLASSIFICATION_TYPE":"U","MEAN_MOTION":15.21472579,"ECCENTRICITY":0.0001465,"INCLINATION":97.48,"RA_OF_ASC_NODE":319.8821,"ARG_OF_PERICENTER":61.2887,"MEAN_ANOMALY":298.8496,"EPHEMERIS_TYPE":0,"NORAD_CAT_ID":64548,"ELEMENT_SET_NO":999,"REV_AT_EPOCH":6041,"BSTAR":0.00024557,"MEAN_MOTION_DOT":0.00005451,"MEAN_MOTION_DDOT":0}]}
